[{"OBJECT_NAME":"ONEWEB-0713","OBJECT_ID":"2023-004AM","EPOCH":"2025-10-15T15:54:44.655840","MEAN_MOTION":13.11417667,"ECCENTRICITY":0.00016995,"INCLINATION":87.8817,"RA_OF_ASC_NODE":69.7624,"ARG_OF_PERICENTER":85.3466,"MEAN_ANOMALY":274.7856,"EPHEMERIS_TYPE":0,"CLASSIFICATION_TYPE":"U","NORAD_CAT_ID":55175,"ELEMENT_SET_NO":999,"REV_AT_EPOCH":13377,"BSTAR":-0.0009446609,"MEAN_MOTION_DOT":-3.22e-6,"MEAN_MOTION_DDOT":0},{"OBJECT_NAME":"ONEWEB-0715","OBJECT_ID":"2023-004AN","EPOCH":"2025-10-15T15:47:25.484640","MEAN_MOTION":13.11416626,"ECCENTRICITY":0.00023501,"INCLINATION":87.8819,"RA_OF_ASC_NODE":69.7629,"ARG_OF_PERICENTER":96.8978,"MEAN_ANOMALY":263.2417,"EPHEMERIS_TYPE":0,"CLASSIFICATION_TYPE":"U","NORAD_CAT_ID":55176,"ELEMENT_SET_NO":999,"REV_AT_EPOCH":13381,"BSTAR":-0.0011799487,"MEAN_MOTION_DOT":-4.05e-6,"MEAN_MOTION_DDOT":0},{"OBJECT_NAME":"ONEWEB-0716","OBJECT_ID":"2023-004AP","EPOCH":"2025-10-15T14:33:31.673376","MEAN_MOTION":13.17649772,"ECCENTRICITY":0.00015716,"INCLINATION":87.9103,"RA_OF_ASC_NODE":54.5115,"ARG_OF_PERICENTER":104.6488,"MEAN_ANOMALY":255.4818,"EPHEMERIS_TYPE":0,"CLASSIFICATION_TYPE":"U","NORAD_CAT_ID":55177,"ELEMENT_SET_NO":999,"REV_AT_EPOCH":13537,"BSTAR":-0.00089602972,"MEAN_MOTION_DOT":-3.35e-6,"MEAN_MOTION_DDOT":0},{"OBJECT_NAME":"ONEWEB-0717","OBJECT_ID":"2023-004AQ","EPOCH":"2025-10-15T14:09:14.714496","MEAN_MOTION":13.17648937,"ECCENTRICITY":0.00020759,"INCLINATION":87.911,"RA_OF_ASC_NODE":54.4801,"ARG_OF_PERICENTER":78.4762,"MEAN_ANOMALY":281.6603,"EPHEMERIS_TYPE":0,"CLASSIFICATION_TYPE":"U","NORAD_CAT_ID":55178,"ELEMENT_SET_NO":999,"REV_AT_EPOCH":13542,"BSTAR":0.00019402397,"MEAN_MOTION_DOT":8.8e-7,"MEAN_MOTION_DDOT":0},{"OBJECT_NAME":"ONEWEB-0719","OBJECT_ID":"2023-004AR","EPOCH":"2025-10-15T08:55:47.293824","MEAN_MOTION":13.17650275,"ECCENTRICITY":0.00015102,"INCLINATION":87.9111,"RA_OF_ASC_NODE":54.5067,"ARG_OF_PERICENTER":98.3566,"MEAN_ANOMALY":261.7736,"EPHEMERIS_TYPE":0,"CLASSIFICATION_TYPE":"U","NORAD_CAT_ID":55179,"ELEMENT_SET_NO":999,"REV_AT_EPOCH":13534,"BSTAR":-1.788544e-6,"MEAN_MOTION_DOT":1.2e-7,"MEAN_MOTION_DDOT":0},{"OBJECT_NAME":"ONEWEB-0530","OBJECT_ID":"2023-029A","EPOCH":"2025-10-15T13:08:26.121120","MEAN_MOTION":13.20769987,"ECCENTRICITY":0.00018239,"INCLINATION":87.9216,"RA_OF_ASC_NODE":323.2739,"ARG_OF_PERICENTER":79.1059,"MEAN_ANOMALY":281.028,"EPHEMERIS_TYPE":0,"CLASSIFICATION_TYPE":"U","NORAD_CAT_ID":55796,"ELEMENT_SET_NO":999,"REV_AT_EPOCH":12885,"BSTAR":6.7403159e-5,"MEAN_MOTION_DOT":4.0e-7,"MEAN_MOTION_DDOT":0},{"OBJECT_NAME":"ONEWEB-0534","OBJECT_ID":"2023-029B","EPOCH":"2025-10-15T12:50:15.326304","MEAN_MOTION":13.20769608,"ECCENTRICITY":0.00018587,"INCLINATION":87.9212,"RA_OF_ASC_NODE":323.2787,"ARG_OF_PERICENTER":97.8924,"MEAN_ANOMALY":262.242,"EPHEMERIS_TYPE":0,"CLASSIFICATION_TYPE":"U","NORAD_CAT_ID":55797,"ELEMENT_SET_NO":999,"REV_AT_EPOCH":12885,"BSTAR":6.8053196e-5,"MEAN_MOTION_DOT":4.1e-7,"MEAN_MOTION_DDOT":0},{"OBJECT_NAME":"ONEWEB-0556","OBJECT_ID":"2023-029C","EPOCH":"2025-10-15T12:59:20.333184","MEAN_MOTION":13.20770728,"ECCENTRICITY":0.00011447,"INCLINATION":87.9216,"RA_OF_ASC_NODE":323.2747,"ARG_OF_PERICENTER":88.3961,"MEAN_ANOMALY":271.7303,"EPHEMERIS_TYPE":0,"CLASSIFICATION_TYPE":"U","NORAD_CAT_ID":55798,"ELEMENT_SET_NO":999,"REV_AT_EPOCH":12885,"BSTAR":-0.00085263757,"MEAN_MOTION_DOT":-3.34e-6,"MEAN_MOTION_DDOT":0},{"OBJECT_NAME":"ONEWEB-0562","OBJECT_ID":"2023-029D","EPOCH":"2025-10-15T12:41:11.312160","MEAN_MOTION":13.20771605,"ECCENTRICITY":0.00015543,"INCLINATION":87.9211,"RA_OF_ASC_NODE":323.2624,"ARG_OF_PERICENTER":68.436,"MEAN_ANOMALY":291.6939,"EPHEMERIS_TYPE":0,"CLASSIFICATION_TYPE":"U","NORAD_CAT_ID":55799,"ELEMENT_SET_NO":999,"REV_AT_EPOCH":12885,"BSTAR":-7.9687706e-5,"MEAN_MOTION_DOT":-1.9e-7,"MEAN_MOTION_DDOT":0},{"OBJECT_NAME":"ONEWEB-0563","OBJECT_ID":"2023-029E","EPOCH":"2025-10-15T08:53:53.080800","MEAN_MOTION":13.20771328,"ECCENTRICITY":0.00017041,"INCLINATION":87.9219,"RA_OF_ASC_NODE":323.318,"ARG_OF_PERICENTER":102.6306,"MEAN_ANOMALY":257.5018,"EPHEMERIS_TYPE":0,"CLASSIFICATION_TYPE":"U","NORAD_CAT_ID":55800,"ELEMENT_SET_NO":999,"REV_AT_EPOCH":12882,"BSTAR":-0.00054861959,"MEAN_MOTION_DOT":-2.1e-6,"MEAN_MOTION_DDOT":0},{"OBJECT_NAME":"ONEWEB-0564","OBJECT_ID":"2023-029F","EPOCH":"2025-10-15T12:22:59.649888","MEAN_MOTION":13.20770144,"ECCENTRICITY":0.00017689,"INCLINATION":87.9212,"RA_OF_ASC_NODE":323.2683,"ARG_OF_PERICENTER":83.8478,"MEAN_ANOMALY":276.2857,"EPHEMERIS_TYPE":0,"CLASSIFICATION_TYPE":"U","NORAD_CAT_ID":55801,"ELEMENT_SET_NO":999,"REV_AT_EPOCH":12885,"BSTAR":0.00025342676,"MEAN_MOTION_DOT":1.16e-6,"MEAN_MOTION_DDOT":0},{"OBJECT_NAME":"ONEWEB-0638","OBJECT_ID":"2023-029G","EPOCH":"2025-10-15T08:52:41.331648","MEAN_MOTION":13.14503167,"ECCENTRICITY":0.00013837,"INCLINATION":87.9042,"RA_OF_ASC_NODE":338.5382,"ARG_OF_PERICENTER":92.145,"MEAN_ANOMALY":267.9839,"EPHEMERIS_TYPE":0,"CLASSIFICATION_TYPE":"U","NORAD_CAT_ID":55802,"ELEMENT_SET_NO":999,"REV_AT_EPOCH":12723,"BSTAR":0.00042986625,"MEAN_MOTION_DOT":1.72e-6,"MEAN_MOTION_DDOT":0},{"OBJECT_NAME":"ONEWEB-0639","OBJECT_ID":"2023-029H","EPOCH":"2025-10-15T10:43:35.286816","MEAN_MOTION":13.19724118,"ECCENTRICITY":0.00022474,"INCLINATION":87.9258,"RA_OF_ASC_NODE":353.6727,"ARG_OF_PERICENTER":129.5273,"MEAN_ANOMALY":230.6059,"EPHEMERIS_TYPE":0,"CLASSIFICATION_TYPE":"U","NORAD_CAT_ID":55803,"ELEMENT_SET_NO":999,"REV_AT_EPOCH":12662,"BSTAR":5.9113628e-5,"MEAN_MOTION_DOT":3.7e-7,"MEAN_MOTION_DDOT":0},{"OBJECT_NAME":"ONEWEB-0640","OBJECT_ID":"2023-029J","EPOCH":"2025-10-15T09:06:23.635008","MEAN_MOTION":13.14503704,"ECCENTRICITY":0.00011742,"INCLINATION":87.9045,"RA_OF_ASC_NODE":338.5211,"ARG_OF_PERICENTER":112.7646,"MEAN_ANOMALY":247.3608,"EPHEMERIS_TYPE":0,"CLASSIFICATION_TYPE":"U","NORAD_CAT_ID":55804,"ELEMENT_SET_NO":999,"REV_AT_EPOCH":12725,"BSTAR":0.00019020772,"MEAN_MOTION_DOT":8.3e-7,"MEAN_MOTION_DDOT":0},{"OBJECT_NAME":"ONEWEB-0641","OBJECT_ID":"2023-029K","EPOCH":"2025-10-15T10:36:46.190592","MEAN_MOTION":13.19726822,"ECCENTRICITY":0.00019916,"INCLINATION":87.9267,"RA_OF_ASC_NODE":353.6491,"ARG_OF_PERICENTER":105.8795,"MEAN_ANOMALY":254.2557,"EPHEMERIS_TYPE":0,"CLASSIFICATION_TYPE":"U","NORAD_CAT_ID":55805,"ELEMENT_SET_NO":999,"REV_AT_EPOCH":12663,"BSTAR":-8.9426708e-5,"MEAN_MOTION_DOT":-2.3e-7,"MEAN_MOTION_DDOT":0},{"OBJECT_NAME":"ONEWEB-0642","OBJECT_ID":"2023-029L","EPOCH":"2025-10-15T05:02:24.760320","MEAN_MOTION":13.1972406,"ECCENTRICITY":0.00023635,"INCLINATION":87.9256,"RA_OF_ASC_NODE":353.7246,"ARG_OF_PERICENTER":120.81,"MEAN_ANOMALY":239.3265,"EPHEMERIS_TYPE":0,"CLASSIFICATION_TYPE":"U","NORAD_CAT_ID":55806,"ELEMENT_SET_NO":999,"REV_AT_EPOCH":12659,"BSTAR":9.0648499e-5,"MEAN_MOTION_DOT":4.9e-7,"MEAN_MOTION_DDOT":0}]
