ONEWEB-0713             
1 55175U 23004AM  25288.66301685 -.00000322  00000+0 -94466-3 0  9992
2 55175  87.8817  69.7624 0001699  85.3466 274.7856 13.11417667133772
ONEWEB-0715             
1 55176U 23004AN  25288.65793385 -.00000405  00000+0 -11799-2 0  9993
2 55176  87.8819  69.7629 0002350  96.8978 263.2417 13.11416626133815
ONEWEB-0716             
1 55177U 23004AP  25288.60661659 -.00000335  00000+0 -89603-3 0  9999
2 55177  87.9103  54.5115 0001571 104.6488 255.4818 13.17649772135370
ONEWEB-0717             
1 55178U 23004AQ  25288.58975364  .00000088  00000+0  19402-3 0  9991
2 55178  87.9110  54.4801 0002075  78.4762 281.6603 13.17648937135424
ONEWEB-0719             
1 55179U 23004AR  25288.37207516  .00000012  00000+0 -17885-5 0  9999
2 55179  87.9111  54.5067 0001510  98.3566 261.7736 13.17650275135342
ONEWEB-0530             
1 55796U 23029A   25288.54752455  .00000040  00000+0  67403-4 0  9997
2 55796  87.9216 323.2739 0001823  79.1059 281.0280 13.20769987128858
ONEWEB-0534             
1 55797U 23029B   25288.53489961  .00000041  00000+0  68053-4 0  9999
2 55797  87.9212 323.2787 0001858  97.8924 262.2420 13.20769608128851
ONEWEB-0556             
1 55798U 23029C   25288.54120756 -.00000334  00000+0 -85264-3 0  9994
2 55798  87.9216 323.2747 0001144  88.3961 271.7303 13.20770728128856
ONEWEB-0562             
1 55799U 23029D   25288.52860315 -.00000019  00000+0 -79688-4 0  9999
2 55799  87.9211 323.2624 0001554  68.4360 291.6939 13.20771605128854
ONEWEB-0563             
1 55800U 23029E   25288.37075325 -.00000210  00000+0 -54862-3 0  9993
2 55800  87.9219 323.3180 0001704 102.6306 257.5018 13.20771328128829
ONEWEB-0564             
1 55801U 23029F   25288.51596817  .00000116  00000+0  25343-3 0  9999
2 55801  87.9212 323.2683 0001768  83.8478 276.2857 13.20770144128857
ONEWEB-0638             
1 55802U 23029G   25288.36992282  .00000172  00000+0  42987-3 0  9994
2 55802  87.9042 338.5382 0001383  92.1450 267.9839 13.14503167127230
ONEWEB-0639             
1 55803U 23029H   25288.44693619  .00000037  00000+0  59114-4 0  9997
2 55803  87.9258 353.6727 0002247 129.5273 230.6059 13.19724118126628
ONEWEB-0640             
1 55804U 23029J   25288.37944022  .00000083  00000+0  19021-3 0  9990
2 55804  87.9045 338.5211 0001174 112.7646 247.3608 13.14503704127255
ONEWEB-0641             
1 55805U 23029K   25288.44220128 -.00000023  00000+0 -89427-4 0  9997
2 55805  87.9267 353.6491 0001991 105.8795 254.2557 13.19726822126639
ONEWEB-0642             
1 55806U 23029L   25288.21000880  .00000049  00000+0  90648-4 0  9997
2 55806  87.9256 353.7246 0002363 120.8100 239.3265 13.19724060126595
